start=new Date('2022-03-06T00:00:00.000Z').valueOf();
sats=[{"MEAN_MOTION_DOT":"0.00001127","RCS_SIZE":"LARGE","OBJECT_NAME":"STARLINK-1168","PERIAPSIS":"545.796","ARG_OF_PERICENTER":"50.8315","MEAN_MOTION":"15.06410248","DECAY_DATE":null,"GP_ID":"198016352","APOAPSIS":"548.569","COUNTRY_CODE":"US","CLASSIFICATION_TYPE":"U","MEAN_ANOMALY":"309.2851","INCLINATION":"53.0569","RA_OF_ASC_NODE":"2.5192","TLE_LINE2":"2 45072  53.0569   2.5192 0002002  50.8315 309.2851 15.06410248115953","EPHEMERIS_TYPE":"0","EPOCH":"2022-03-05T20:29:17.796480","MEAN_MOTION_DDOT":"0.0000000000000","LAUNCH_DATE":"2020-01-29","NORAD_CAT_ID":"45072","REF_FRAME":"TEME","FILE":"3346512","TIME_SYSTEM":"UTC","CENTER_NAME":"EARTH","BSTAR":"0.00009451900000","REV_AT_EPOCH":"11595","MEAN_ELEMENT_THEORY":"SGP4","OBJECT_ID":"2020-006AE","ECCENTRICITY":"0.00020020","TLE_LINE1":"1 45072U 20006AE  22064.85367820  .00001127  00000-0  94519-4 0  9992","ELEMENT_SET_NO":"999","PERIOD":"95.591","OBJECT_TYPE":"PAYLOAD","SEMIMAJOR_AXIS":"6925.317","SITE":"AFETR"},{"OBJECT_NAME":"STARLINK-1170","RCS_SIZE":"LARGE","MEAN_MOTION_DOT":"0.00002694","PERIAPSIS":"545.846","MEAN_MOTION":"15.06410433","ARG_OF_PERICENTER":"54.3558","DECAY_DATE":null,"GP_ID":"198015600","COUNTRY_CODE":"US","APOAPSIS":"548.517","CLASSIFICATION_TYPE":"U","INCLINATION":"53.0549","MEAN_ANOMALY":"305.7611","TLE_LINE2":"2 45073  53.0549   3.5899 0001928  54.3558 305.7611 15.06410433115918","RA_OF_ASC_NODE":"3.5899","EPHEMERIS_TYPE":"0","EPOCH":"2022-03-05T14:44:17.596320","MEAN_MOTION_DDOT":"0.0000000000000","LAUNCH_DATE":"2020-01-29","NORAD_CAT_ID":"45073","FILE":"3346512","REF_FRAME":"TEME","TIME_SYSTEM":"UTC","CENTER_NAME":"EARTH","BSTAR":"0.00019962000000","MEAN_ELEMENT_THEORY":"SGP4","REV_AT_EPOCH":"11591","ECCENTRICITY":"0.00019280","OBJECT_ID":"2020-006AF","TLE_LINE1":"1 45073U 20006AF  22064.61409255  .00002694  00000-0  19962-3 0  9994","ELEMENT_SET_NO":"999","PERIOD":"95.591","OBJECT_TYPE":"PAYLOAD","SEMIMAJOR_AXIS":"6925.317","SITE":"AFETR"},{"RA_OF_ASC_NODE":"2.4874","TLE_LINE2":"2 45074  53.0550   2.4874 0001629  63.9895 296.1262 15.06405519115958","EPHEMERIS_TYPE":"0","EPOCH":"2022-03-05T20:45:13.828896","INCLINATION":"53.0550","MEAN_ANOMALY":"296.1262","NORAD_CAT_ID":"45074","LAUNCH_DATE":"2020-01-29","FILE":"3346512","REF_FRAME":"TEME","MEAN_MOTION_DDOT":"0.0000000000000","PERIAPSIS":"546.069","RCS_SIZE":"LARGE","MEAN_MOTION_DOT":"0.00002823","OBJECT_NAME":"STARLINK-1172","GP_ID":"198015850","COUNTRY_CODE":"US","APOAPSIS":"548.325","CLASSIFICATION_TYPE":"U","MEAN_MOTION":"15.06405519","ARG_OF_PERICENTER":"63.9895","DECAY_DATE":null,"ELEMENT_SET_NO":"999","TLE_LINE1":"1 45074U 20006AG  22064.86474339  .00002823  00000-0  20829-3 0  9995","SITE":"AFETR","SEMIMAJOR_AXIS":"6925.332","PERIOD":"95.592","OBJECT_TYPE":"PAYLOAD","CENTER_NAME":"EARTH","TIME_SYSTEM":"UTC","BSTAR":"0.00020829000000","MEAN_ELEMENT_THEORY":"SGP4","REV_AT_EPOCH":"11595","OBJECT_ID":"2020-006AG","ECCENTRICITY":"0.00016290"},{"SITE":"AFETR","SEMIMAJOR_AXIS":"6925.333","OBJECT_TYPE":"PAYLOAD","PERIOD":"95.592","ELEMENT_SET_NO":"999","TLE_LINE1":"1 45075U 20006AH  22064.56617670  .00001738  00000-0  13551-3 0  9998","ECCENTRICITY":"0.00013500","OBJECT_ID":"2020-006AH","BSTAR":"0.00013551000000","MEAN_ELEMENT_THEORY":"SGP4","REV_AT_EPOCH":"11591","CENTER_NAME":"EARTH","TIME_SYSTEM":"UTC","FILE":"3346052","REF_FRAME":"TEME","NORAD_CAT_ID":"45075","LAUNCH_DATE":"2020-01-29","MEAN_MOTION_DDOT":"0.0000000000000","EPOCH":"2022-03-05T13:35:17.666880","TLE_LINE2":"2 45075  53.0540   3.8153 0001350  75.6698 284.4441 15.06405120115918","RA_OF_ASC_NODE":"3.8153","EPHEMERIS_TYPE":"0","MEAN_ANOMALY":"284.4441","INCLINATION":"53.0540","CLASSIFICATION_TYPE":"U","GP_ID":"197979905","COUNTRY_CODE":"US","APOAPSIS":"548.133","DECAY_DATE":null,"ARG_OF_PERICENTER":"75.6698","MEAN_MOTION":"15.06405120","PERIAPSIS":"546.263","RCS_SIZE":"LARGE","OBJECT_NAME":"STARLINK-1174","MEAN_MOTION_DOT":"0.00001738"},{"EPOCH":"2022-03-05T05:48:12.950784","TLE_LINE2":"2 45076  53.0562   5.2673 0001788  65.3848 294.7327 15.06402628115865","RA_OF_ASC_NODE":"5.2673","EPHEMERIS_TYPE":"0","INCLINATION":"53.0562","MEAN_ANOMALY":"294.7327","REF_FRAME":"TEME","FILE":"3345400","NORAD_CAT_ID":"45076","LAUNCH_DATE":"2020-01-29","MEAN_MOTION_DDOT":"0.0000000000000","PERIAPSIS":"545.967","RCS_SIZE":"LARGE","OBJECT_NAME":"STARLINK-1180","MEAN_MOTION_DOT":"0.00001577","CLASSIFICATION_TYPE":"U","GP_ID":"197938892","APOAPSIS":"548.444","COUNTRY_CODE":"US","DECAY_DATE":null,"MEAN_MOTION":"15.06402628","ARG_OF_PERICENTER":"65.3848","ELEMENT_SET_NO":"999","TLE_LINE1":"1 45076U 20006AJ  22064.24181656  .00001577  00000-0  12477-3 0  9991","SITE":"AFETR","SEMIMAJOR_AXIS":"6925.341","OBJECT_TYPE":"PAYLOAD","PERIOD":"95.592","BSTAR":"0.00012477000000","MEAN_ELEMENT_THEORY":"SGP4","REV_AT_EPOCH":"11586","CENTER_NAME":"EARTH","TIME_SYSTEM":"UTC","ECCENTRICITY":"0.00017880","OBJECT_ID":"2020-006AJ"},{"BSTAR":"0.00063060000000","MEAN_ELEMENT_THEORY":"SGP4","REV_AT_EPOCH":"11694","TIME_SYSTEM":"UTC","CENTER_NAME":"EARTH","OBJECT_ID":"2020-006AK","ECCENTRICITY":"0.00078200","TLE_LINE1":"1 45077U 20006AK  22064.91357643  .00200528  25905-4  63060-3 0  9993","ELEMENT_SET_NO":"999","OBJECT_TYPE":"PAYLOAD","PERIOD":"90.510","SEMIMAJOR_AXIS":"6677.682","SITE":"AFETR","RCS_SIZE":"LARGE","MEAN_MOTION_DOT":"0.00200528","OBJECT_NAME":"STARLINK-1182","PERIAPSIS":"294.326","DECAY_DATE":null,"ARG_OF_PERICENTER":"274.1901","MEAN_MOTION":"15.90977788","CLASSIFICATION_TYPE":"U","COUNTRY_CODE":"US","GP_ID":"198015101","APOAPSIS":"304.769","MEAN_ANOMALY":"85.8230","INCLINATION":"53.0518","EPOCH":"2022-03-05T21:55:33.003552","TLE_LINE2":"2 45077  53.0518 292.5586 0007820 274.1901  85.8230 15.90977788116943","EPHEMERIS_TYPE":"0","RA_OF_ASC_NODE":"292.5586","MEAN_MOTION_DDOT":"0.0000259050000","FILE":"3346512","REF_FRAME":"TEME","LAUNCH_DATE":"2020-01-29","NORAD_CAT_ID":"45077"},{"PERIAPSIS":"545.992","RCS_SIZE":"LARGE","MEAN_MOTION_DOT":"0.00001767","OBJECT_NAME":"STARLINK-1177","COUNTRY_CODE":"US","GP_ID":"198015351","APOAPSIS":"548.420","CLASSIFICATION_TYPE":"U","MEAN_MOTION":"15.06402446","ARG_OF_PERICENTER":"58.2150","DECAY_DATE":null,"TLE_LINE2":"2 45078  53.0556   2.8168 0001753  58.2150 301.9010 15.06402446115937","EPHEMERIS_TYPE":"0","RA_OF_ASC_NODE":"2.8168","EPOCH":"2022-03-05T18:59:03.875712","MEAN_ANOMALY":"301.9010","INCLINATION":"53.0556","LAUNCH_DATE":"2020-01-29","NORAD_CAT_ID":"45078","REF_FRAME":"TEME","FILE":"3346512","MEAN_MOTION_DDOT":"0.0000000000000","CENTER_NAME":"EARTH","TIME_SYSTEM":"UTC","REV_AT_EPOCH":"11593","BSTAR":"0.00013749000000","MEAN_ELEMENT_THEORY":"SGP4","OBJECT_ID":"2020-006AL","ECCENTRICITY":"0.00017530","ELEMENT_SET_NO":"999","TLE_LINE1":"1 45078U 20006AL  22064.79101708  .00001767  00000-0  13749-3 0  9997","SITE":"AFETR","SEMIMAJOR_AXIS":"6925.341","PERIOD":"95.592","OBJECT_TYPE":"PAYLOAD"},{"MEAN_MOTION_DDOT":"0.0000000000000","NORAD_CAT_ID":"45079","LAUNCH_DATE":"2020-01-29","FILE":"3346512","REF_FRAME":"TEME","INCLINATION":"53.0553","MEAN_ANOMALY":"284.4826","TLE_LINE2":"2 45079  53.0553   2.6000 0001475  75.6327 284.4826 15.06408078115946","RA_OF_ASC_NODE":"2.6000","EPHEMERIS_TYPE":"0","EPOCH":"2022-03-05T20:02:45.371904","MEAN_MOTION":"15.06408078","ARG_OF_PERICENTER":"75.6327","DECAY_DATE":null,"APOAPSIS":"548.210","GP_ID":"198016102","COUNTRY_CODE":"US","CLASSIFICATION_TYPE":"U","OBJECT_NAME":"STARLINK-1149","RCS_SIZE":"LARGE","MEAN_MOTION_DOT":"0.00001331","PERIAPSIS":"546.167","PERIOD":"95.592","OBJECT_TYPE":"PAYLOAD","SEMIMAJOR_AXIS":"6925.324","SITE":"AFETR","TLE_LINE1":"1 45079U 20006AM  22064.83524736  .00001331  00000-0  10819-3 0  9995","ELEMENT_SET_NO":"999","ECCENTRICITY":"0.00014750","OBJECT_ID":"2020-006AM","TIME_SYSTEM":"UTC","CENTER_NAME":"EARTH","BSTAR":"0.00010819000000","REV_AT_EPOCH":"11594","MEAN_ELEMENT_THEORY":"SGP4"},{"RCS_SIZE":"LARGE","MEAN_MOTION_DOT":"0.00004797","OBJECT_NAME":"STARLINK-1153","PERIAPSIS":"545.824","DECAY_DATE":null,"MEAN_MOTION":"15.06416224","ARG_OF_PERICENTER":"56.5483","CLASSIFICATION_TYPE":"U","GP_ID":"198016353","COUNTRY_CODE":"US","APOAPSIS":"548.504","INCLINATION":"53.0554","MEAN_ANOMALY":"303.5691","EPOCH":"2022-03-05T20:13:22.577088","EPHEMERIS_TYPE":"0","TLE_LINE2":"2 45080  53.0554   2.5697 0001935  56.5483 303.5691 15.06416224115958","RA_OF_ASC_NODE":"2.5697","MEAN_MOTION_DDOT":"0.0000000000000","REF_FRAME":"TEME","FILE":"3346512","NORAD_CAT_ID":"45080","LAUNCH_DATE":"2020-01-29","MEAN_ELEMENT_THEORY":"SGP4","BSTAR":"0.00034057000000","REV_AT_EPOCH":"11595","TIME_SYSTEM":"UTC","CENTER_NAME":"EARTH","ECCENTRICITY":"0.00019350","OBJECT_ID":"2020-006AN","TLE_LINE1":"1 45080U 20006AN  22064.84262242  .00004797  00000-0  34057-3 0  9998","ELEMENT_SET_NO":"999","OBJECT_TYPE":"PAYLOAD","PERIOD":"95.591","SEMIMAJOR_AXIS":"6925.299","SITE":"AFETR"},{"ELEMENT_SET_NO":"999","TLE_LINE1":"1 45081U 20006AP  22064.82050905  .00003660  00000-0  26443-3 0  9996","SITE":"AFETR","SEMIMAJOR_AXIS":"6925.331","PERIOD":"95.592","OBJECT_TYPE":"PAYLOAD","CENTER_NAME":"EARTH","TIME_SYSTEM":"UTC","MEAN_ELEMENT_THEORY":"SGP4","BSTAR":"0.00026443000000","REV_AT_EPOCH":"11595","ECCENTRICITY":"0.00017320","OBJECT_ID":"2020-006AP","TLE_LINE2":"2 45081  53.0548   2.6863 0001732  63.3492 296.7674 15.06405625115956","EPHEMERIS_TYPE":"0","RA_OF_ASC_NODE":"2.6863","EPOCH":"2022-03-05T19:41:31.981920","MEAN_ANOMALY":"296.7674","INCLINATION":"53.0548","NORAD_CAT_ID":"45081","LAUNCH_DATE":"2020-01-29","REF_FRAME":"TEME","FILE":"3346512","MEAN_MOTION_DDOT":"0.0000000000000","PERIAPSIS":"545.997","RCS_SIZE":"LARGE","OBJECT_NAME":"STARLINK-1151","MEAN_MOTION_DOT":"0.00003660","APOAPSIS":"548.396","GP_ID":"198015601","COUNTRY_CODE":"US","CLASSIFICATION_TYPE":"U","MEAN_MOTION":"15.06405625","ARG_OF_PERICENTER":"63.3492","DECAY_DATE":null}];
